CCSDS_OMM_VERS = 2.0
CREATION_DATE  = 
ORIGINATOR     = 

OBJECT_NAME    = STARLINK-36042
OBJECT_ID      = 2025-278Y
CENTER_NAME    = EARTH
REF_FRAME      = TEME
TIME_SYSTEM    = UTC
MEAN_ELEMENT_THEORY = SGP/SGP4

EPOCH          = 2025-12-16T22:00:03.000096
MEAN_MOTION    = 15.75022166
ECCENTRICITY   = .00018444
INCLINATION    = 42.9986
RA_OF_ASC_NODE = 226.4504
ARG_OF_PERICENTER = 277.1176
MEAN_ANOMALY   = 200.4225

EPHEMERIS_TYPE = 0
CLASSIFICATION_TYPE = U
NORAD_CAT_ID   = 66813
ELEMENT_SET_NO = 999
REV_AT_EPOCH   = 363
BSTAR          = .13108298E-3
MEAN_MOTION_DOT = .1969E-3
MEAN_MOTION_DDOT = 0

CCSDS_OMM_VERS = 2.0
CREATION_DATE  = 
ORIGINATOR     = 

OBJECT_NAME    = STARLINK-35984
OBJECT_ID      = 2025-278Z
CENTER_NAME    = EARTH
REF_FRAME      = TEME
TIME_SYSTEM    = UTC
MEAN_ELEMENT_THEORY = SGP/SGP4

EPOCH          = 2025-12-16T22:00:03.000096
MEAN_MOTION    = 15.75021237
ECCENTRICITY   = .00018869
INCLINATION    = 42.9986
RA_OF_ASC_NODE = 226.4215
ARG_OF_PERICENTER = 269.7272
MEAN_ANOMALY   = 219.3159

EPHEMERIS_TYPE = 0
CLASSIFICATION_TYPE = U
NORAD_CAT_ID   = 66814
ELEMENT_SET_NO = 999
REV_AT_EPOCH   = 371
BSTAR          = .10763925E-3
MEAN_MOTION_DOT = .16076E-3
MEAN_MOTION_DDOT = 0

CCSDS_OMM_VERS = 2.0
CREATION_DATE  = 
ORIGINATOR     = 

OBJECT_NAME    = STARLINK-35985
OBJECT_ID      = 2025-278AA
CENTER_NAME    = EARTH
REF_FRAME      = TEME
TIME_SYSTEM    = UTC
MEAN_ELEMENT_THEORY = SGP/SGP4

EPOCH          = 2025-12-16T22:00:03.000096
MEAN_MOTION    = 15.75029854
ECCENTRICITY   = .00018523
INCLINATION    = 42.9987
RA_OF_ASC_NODE = 226.4258
ARG_OF_PERICENTER = 269.5142
MEAN_ANOMALY   = 217.6095

EPHEMERIS_TYPE = 0
CLASSIFICATION_TYPE = U
NORAD_CAT_ID   = 66815
ELEMENT_SET_NO = 999
REV_AT_EPOCH   = 371
BSTAR          = -.32330092E-4
MEAN_MOTION_DOT = -.5439E-4
MEAN_MOTION_DDOT = 0

CCSDS_OMM_VERS = 2.0
CREATION_DATE  = 
ORIGINATOR     = 

OBJECT_NAME    = STARLINK-36098
OBJECT_ID      = 2025-278AB
CENTER_NAME    = EARTH
REF_FRAME      = TEME
TIME_SYSTEM    = UTC
MEAN_ELEMENT_THEORY = SGP/SGP4

EPOCH          = 2025-12-16T22:00:03.000096
MEAN_MOTION    = 15.75028037
ECCENTRICITY   = .00015064
INCLINATION    = 42.9985
RA_OF_ASC_NODE = 226.4458
ARG_OF_PERICENTER = 277.6984
MEAN_ANOMALY   = 201.7484

EPHEMERIS_TYPE = 0
CLASSIFICATION_TYPE = U
NORAD_CAT_ID   = 66816
ELEMENT_SET_NO = 999
REV_AT_EPOCH   = 347
BSTAR          = .10943751E-3
MEAN_MOTION_DOT = .16357E-3
MEAN_MOTION_DDOT = 0

CCSDS_OMM_VERS = 2.0
CREATION_DATE  = 
ORIGINATOR     = 

OBJECT_NAME    = STARLINK-35995
OBJECT_ID      = 2025-278AC
CENTER_NAME    = EARTH
REF_FRAME      = TEME
TIME_SYSTEM    = UTC
MEAN_ELEMENT_THEORY = SGP/SGP4

EPOCH          = 2025-12-16T22:00:03.000096
MEAN_MOTION    = 15.74996580
ECCENTRICITY   = .00023786
INCLINATION    = 42.9985
RA_OF_ASC_NODE = 226.4359
ARG_OF_PERICENTER = 280.5137
MEAN_ANOMALY   = 202.6982

EPHEMERIS_TYPE = 0
CLASSIFICATION_TYPE = U
NORAD_CAT_ID   = 66817
ELEMENT_SET_NO = 999
REV_AT_EPOCH   = 363
BSTAR          = .73990394E-3
MEAN_MOTION_DOT = .114527E-2
MEAN_MOTION_DDOT = 0

CCSDS_OMM_VERS = 2.0
CREATION_DATE  = 
ORIGINATOR     = 

OBJECT_NAME    = STARLINK-35994
OBJECT_ID      = 2025-278AD
CENTER_NAME    = EARTH
REF_FRAME      = TEME
TIME_SYSTEM    = UTC
MEAN_ELEMENT_THEORY = SGP/SGP4

EPOCH          = 2025-12-16T22:00:03.000096
MEAN_MOTION    = 15.75035836
ECCENTRICITY   = .00016125
INCLINATION    = 42.9986
RA_OF_ASC_NODE = 226.4410
ARG_OF_PERICENTER = 269.4309
MEAN_ANOMALY   = 211.9400

EPHEMERIS_TYPE = 0
CLASSIFICATION_TYPE = U
NORAD_CAT_ID   = 66818
ELEMENT_SET_NO = 999
REV_AT_EPOCH   = 363
BSTAR          = -.54584284E-4
MEAN_MOTION_DOT = -.8852E-4
MEAN_MOTION_DDOT = 0

CCSDS_OMM_VERS = 2.0
CREATION_DATE  = 
ORIGINATOR     = 

OBJECT_NAME    = STARLINK-35989
OBJECT_ID      = 2025-278AE
CENTER_NAME    = EARTH
REF_FRAME      = TEME
TIME_SYSTEM    = UTC
MEAN_ELEMENT_THEORY = SGP/SGP4

EPOCH          = 2025-12-16T22:00:03.000096
MEAN_MOTION    = 15.75123444
ECCENTRICITY   = .00019507
INCLINATION    = 42.9985
RA_OF_ASC_NODE = 226.4308
ARG_OF_PERICENTER = 267.7581
MEAN_ANOMALY   = 217.4274

EPHEMERIS_TYPE = 0
CLASSIFICATION_TYPE = U
NORAD_CAT_ID   = 66819
ELEMENT_SET_NO = 999
REV_AT_EPOCH   = 363
BSTAR          = -.10335371E-2
MEAN_MOTION_DOT = -.156912E-2
MEAN_MOTION_DDOT = 0

CCSDS_OMM_VERS = 2.0
CREATION_DATE  = 
ORIGINATOR     = 

OBJECT_NAME    = KOMPSAT-7
OBJECT_ID      = 2025-279A
CENTER_NAME    = EARTH
REF_FRAME      = TEME
TIME_SYSTEM    = UTC
MEAN_ELEMENT_THEORY = SGP/SGP4

EPOCH          = 2025-12-14T22:41:19.689792
MEAN_MOTION    = 14.98965885
ECCENTRICITY   = .00087651
INCLINATION    = 97.6417
RA_OF_ASC_NODE = 294.7686
ARG_OF_PERICENTER = 217.2843
MEAN_ANOMALY   = 142.7773

EPHEMERIS_TYPE = 0
CLASSIFICATION_TYPE = U
NORAD_CAT_ID   = 66820
ELEMENT_SET_NO = 999
REV_AT_EPOCH   = 198
BSTAR          = .23616624E-3
MEAN_MOTION_DOT = .2802E-4
MEAN_MOTION_DDOT = 0

CCSDS_OMM_VERS = 2.0
CREATION_DATE  = 
ORIGINATOR     = 

OBJECT_NAME    = STARLINK-35966
OBJECT_ID      = 2025-280A
CENTER_NAME    = EARTH
REF_FRAME      = TEME
TIME_SYSTEM    = UTC
MEAN_ELEMENT_THEORY = SGP/SGP4

EPOCH          = 2025-12-16T22:00:03.000096
MEAN_MOTION    = 15.64606602
ECCENTRICITY   = .0003352
INCLINATION    = 69.9997
RA_OF_ASC_NODE = 187.0466
ARG_OF_PERICENTER = 271.5729
MEAN_ANOMALY   = 334.6713

EPHEMERIS_TYPE = 0
CLASSIFICATION_TYPE = U
NORAD_CAT_ID   = 66821
ELEMENT_SET_NO = 999
REV_AT_EPOCH   = 356
BSTAR          = -.22751732E-1
MEAN_MOTION_DOT = -.1950122E-1
MEAN_MOTION_DDOT = 0

CCSDS_OMM_VERS = 2.0
CREATION_DATE  = 
ORIGINATOR     = 

OBJECT_NAME    = STARLINK-35958
OBJECT_ID      = 2025-280B
CENTER_NAME    = EARTH
REF_FRAME      = TEME
TIME_SYSTEM    = UTC
MEAN_ELEMENT_THEORY = SGP/SGP4

EPOCH          = 2025-12-16T22:00:03.000096
MEAN_MOTION    = 15.64590758
ECCENTRICITY   = .00030865
INCLINATION    = 69.9997
RA_OF_ASC_NODE = 187.0456
ARG_OF_PERICENTER = 275.4619
MEAN_ANOMALY   = 332.7099

EPHEMERIS_TYPE = 0
CLASSIFICATION_TYPE = U
NORAD_CAT_ID   = 66822
ELEMENT_SET_NO = 999
REV_AT_EPOCH   = 356
BSTAR          = -.22580581E-1
MEAN_MOTION_DOT = -.1935832E-1
MEAN_MOTION_DDOT = 0

CCSDS_OMM_VERS = 2.0
CREATION_DATE  = 
ORIGINATOR     = 

OBJECT_NAME    = STARLINK-35957
OBJECT_ID      = 2025-280C
CENTER_NAME    = EARTH
REF_FRAME      = TEME
TIME_SYSTEM    = UTC
MEAN_ELEMENT_THEORY = SGP/SGP4

EPOCH          = 2025-12-16T22:00:03.000096
MEAN_MOTION    = 15.64627160
ECCENTRICITY   = .00034593
INCLINATION    = 69.9994
RA_OF_ASC_NODE = 187.0424
ARG_OF_PERICENTER = 270.0041
MEAN_ANOMALY   = 340.0683

EPHEMERIS_TYPE = 0
CLASSIFICATION_TYPE = U
NORAD_CAT_ID   = 66823
ELEMENT_SET_NO = 999
REV_AT_EPOCH   = 356
BSTAR          = -.23273387E-1
MEAN_MOTION_DOT = -.1991042E-1
MEAN_MOTION_DDOT = 0

CCSDS_OMM_VERS = 2.0
CREATION_DATE  = 
ORIGINATOR     = 

OBJECT_NAME    = STARLINK-35896
OBJECT_ID      = 2025-280D
CENTER_NAME    = EARTH
REF_FRAME      = TEME
TIME_SYSTEM    = UTC
MEAN_ELEMENT_THEORY = SGP/SGP4

EPOCH          = 2025-12-16T22:00:03.000096
MEAN_MOTION    = 15.64628290
ECCENTRICITY   = .00034824
INCLINATION    = 69.9998
RA_OF_ASC_NODE = 187.0404
ARG_OF_PERICENTER = 271.8665
MEAN_ANOMALY   = 340.1211

EPHEMERIS_TYPE = 0
CLASSIFICATION_TYPE = U
NORAD_CAT_ID   = 66824
ELEMENT_SET_NO = 999
REV_AT_EPOCH   = 356
BSTAR          = -.23265172E-1
MEAN_MOTION_DOT = -.1990524E-1
MEAN_MOTION_DDOT = 0

