STARLINK-36042          
1 66813U 25278Y   25350.91670139  .00019690  00000+0  13108-3 0  9999
2 66813  42.9986 226.4504 0001844 277.1176 200.4225 15.75022166  3637
STARLINK-35984          
1 66814U 25278Z   25350.91670139  .00016076  00000+0  10764-3 0  9990
2 66814  42.9986 226.4215 0001886 269.7272 219.3159 15.75021237  3719
STARLINK-35985          
1 66815U 25278AA  25350.91670139 -.00005439  00000+0 -32330-4 0  9998
2 66815  42.9987 226.4258 0001852 269.5142 217.6095 15.75029854  3718
STARLINK-36098          
1 66816U 25278AB  25350.91670139  .00016357  00000+0  10944-3 0  9994
2 66816  42.9985 226.4458 0001506 277.6984 201.7484 15.75028037  3470
STARLINK-35995          
1 66817U 25278AC  25350.91670139  .00114527  00000+0  73990-3 0  9993
2 66817  42.9985 226.4359 0002378 280.5137 202.6982 15.74996580  3639
STARLINK-35994          
1 66818U 25278AD  25350.91670139 -.00008852  00000+0 -54584-4 0  9998
2 66818  42.9986 226.4410 0001612 269.4309 211.9400 15.75035836  3633
STARLINK-35989          
1 66819U 25278AE  25350.91670139 -.00156912  00000+0 -10335-2 0  9994
2 66819  42.9985 226.4308 0001950 267.7581 217.4274 15.75123444  3630
KOMPSAT-7               
1 66820U 25279A   25348.94536678  .00002802  00000+0  23617-3 0  9990
2 66820  97.6417 294.7686 0008765 217.2843 142.7773 14.98965885  1985
STARLINK-35966          
1 66821U 25280A   25350.91670139 -.01950122  00000+0 -22752-1 0  9991
2 66821  69.9997 187.0466 0003352 271.5729 334.6713 15.64606602  3569
STARLINK-35958          
1 66822U 25280B   25350.91670139 -.01935832  00000+0 -22581-1 0  9993
2 66822  69.9997 187.0456 0003086 275.4619 332.7099 15.64590758  3564
STARLINK-35957          
1 66823U 25280C   25350.91670139 -.01991042  00000+0 -23273-1 0  9998
2 66823  69.9994 187.0424 0003459 270.0041 340.0683 15.64627160  3560
STARLINK-35896          
1 66824U 25280D   25350.91670139 -.01990524  00000+0 -23265-1 0  9994
2 66824  69.9998 187.0404 0003482 271.8665 340.1211 15.64628290  3563
